{
  "type": "FeatureCollection",
  "features": [
    {
      "type": "Feature",
      "properties": {
        "norad_id": 40236,
        "name": "COSMOS 2251 DEB",
        "group": "cosmos-2251-debris",
        "lat": 71.17393346933962,
        "lon": -99.62642376704903,
        "alt_km": 1059.0304406727446,
        "timestamp": "2025-12-14T18:52:55.901838+00:00",
        "meta_object_name": "COSMOS 2251 DEB",
        "meta_object_id": "1993-036BVR",
        "meta_epoch": "2025-12-07T17:52:23.026080",
        "meta_mean_motion": 13.24639967,
        "meta_eccentricity": 0.05366128,
        "meta_inclination": 73.5349,
        "meta_ra_of_asc_node": 151.6266,
        "meta_arg_of_pericenter": 32.3576,
        "meta_mean_anomaly": 330.9258,
        "meta_ephemeris_type": 0,
        "meta_classification_type": "U",
        "meta_norad_cat_id": 40236,
        "meta_element_set_no": 999,
        "meta_rev_at_epoch": 53558,
        "meta_bstar": 0.0015786255,
        "meta_mean_motion_dot": 1.455e-05,
        "meta_mean_motion_ddot": 0,
        "tle_line1": "1 40236U 93036BVR 25341.74471095  .00001455  00000+0  15786-2 0  9991",
        "tle_line2": "2 40236  73.5349 151.6266 0536612  32.3576 330.9258 13.24639967535580"
      },
      "geometry": {
        "type": "Point",
        "coordinates": [
          -99.62642376704903,
          71.17393346933962
        ]
      }
    },
    {
      "type": "Feature",
      "properties": {
        "norad_id": 40238,
        "name": "COSMOS 2251 DEB",
        "group": "cosmos-2251-debris",
        "lat": -13.283328012223315,
        "lon": -115.65811246732592,
        "alt_km": 1560.8063850448498,
        "timestamp": "2025-12-14T18:52:55.901849+00:00",
        "meta_object_name": "COSMOS 2251 DEB",
        "meta_object_id": "1993-036BVT",
        "meta_epoch": "2025-12-13T22:00:17.688960",
        "meta_mean_motion": 13.25118761,
        "meta_eccentricity": 0.05494159,
        "meta_inclination": 73.9889,
        "meta_ra_of_asc_node": 61.7905,
        "meta_arg_of_pericenter": 33.3831,
        "meta_mean_anomaly": 330.0665,
        "meta_ephemeris_type": 0,
        "meta_classification_type": "U",
        "meta_norad_cat_id": 40238,
        "meta_element_set_no": 999,
        "meta_rev_at_epoch": 54052,
        "meta_bstar": 0.0015955991,
        "meta_mean_motion_dot": 1.546e-05,
        "meta_mean_motion_ddot": 0,
        "tle_line1": "1 40238U 93036BVT 25347.91687140  .00001546  00000+0  15956-2 0  9998",
        "tle_line2": "2 40238  73.9889  61.7905 0549415  33.3831 330.0665 13.25118761540524"
      },
      "geometry": {
        "type": "Point",
        "coordinates": [
          -115.65811246732592,
          -13.283328012223315
        ]
      }
    },
    {
      "type": "Feature",
      "properties": {
        "norad_id": 40239,
        "name": "COSMOS 2251 DEB",
        "group": "cosmos-2251-debris",
        "lat": -67.00048369339837,
        "lon": -130.50403297135534,
        "alt_km": 699.309245826179,
        "timestamp": "2025-12-14T18:52:55.901863+00:00",
        "meta_object_name": "COSMOS 2251 DEB",
        "meta_object_id": "1993-036BVU",
        "meta_epoch": "2025-12-10T14:12:54.993024",
        "meta_mean_motion": 14.6197936,
        "meta_eccentricity": 0.0084758,
        "meta_inclination": 74.0316,
        "meta_ra_of_asc_node": 279.9471,
        "meta_arg_of_pericenter": 31.8637,
        "meta_mean_anomaly": 148.8031,
        "meta_ephemeris_type": 0,
        "meta_classification_type": "U",
        "meta_norad_cat_id": 40239,
        "meta_element_set_no": 999,
        "meta_rev_at_epoch": 59579,
        "meta_bstar": 0.00074089,
        "meta_mean_motion_dot": 3.879e-05,
        "meta_mean_motion_ddot": 0,
        "tle_line1": "1 40239U 93036BVU 25344.59230316  .00003879  00000+0  74089-3 0  9993",
        "tle_line2": "2 40239  74.0316 279.9471 0084758  31.8637 148.8031 14.61979360595796"
      },
      "geometry": {
        "type": "Point",
        "coordinates": [
          -130.50403297135534,
          -67.00048369339837
        ]
      }
    },
    {
      "type": "Feature",
      "properties": {
        "norad_id": 40792,
        "name": "COSMOS 2251 DEB",
        "group": "cosmos-2251-debris",
        "lat": 44.89636906877927,
        "lon": -153.05296729860794,
        "alt_km": 654.0952659112281,
        "timestamp": "2025-12-14T18:52:55.901873+00:00",
        "meta_object_name": "COSMOS 2251 DEB",
        "meta_object_id": "1993-036BVV",
        "meta_epoch": "2025-12-13T21:48:53.616096",
        "meta_mean_motion": 14.67590278,
        "meta_eccentricity": 0.00153774,
        "meta_inclination": 74.0462,
        "meta_ra_of_asc_node": 45.2013,
        "meta_arg_of_pericenter": 149.8992,
        "meta_mean_anomaly": 27.0176,
        "meta_ephemeris_type": 0,
        "meta_classification_type": "U",
        "meta_norad_cat_id": 40792,
        "meta_element_set_no": 999,
        "meta_rev_at_epoch": 63201,
        "meta_bstar": 0.0011407186,
        "meta_mean_motion_dot": 6.465e-05,
        "meta_mean_motion_ddot": 0,
        "tle_line1": "1 40792U 93036BVV 25347.90895389  .00006465  00000+0  11407-2 0  9990",
        "tle_line2": "2 40792  74.0462  45.2013 0015377 149.8992  27.0176 14.67590278632011"
      },
      "geometry": {
        "type": "Point",
        "coordinates": [
          -153.05296729860794,
          44.89636906877927
        ]
      }
    },
    {
      "type": "Feature",
      "properties": {
        "norad_id": 40793,
        "name": "COSMOS 2251 DEB",
        "group": "cosmos-2251-debris",
        "lat": -4.546708815259147,
        "lon": 160.22705104586507,
        "alt_km": 753.3765237642074,
        "timestamp": "2025-12-14T18:52:55.901883+00:00",
        "meta_object_name": "COSMOS 2251 DEB",
        "meta_object_id": "1993-036BVW",
        "meta_epoch": "2025-11-17T22:59:08.433600",
        "meta_mean_motion": 14.0559149,
        "meta_eccentricity": 0.02150611,
        "meta_inclination": 73.9793,
        "meta_ra_of_asc_node": 208.5839,
        "meta_arg_of_pericenter": 10.058,
        "meta_mean_anomaly": 350.4754,
        "meta_ephemeris_type": 0,
        "meta_classification_type": "U",
        "meta_norad_cat_id": 40793,
        "meta_element_set_no": 999,
        "meta_rev_at_epoch": 67897,
        "meta_bstar": 0.0015211732,
        "meta_mean_motion_dot": 3.024e-05,
        "meta_mean_motion_ddot": 0,
        "tle_line1": "1 40793U 93036BVW 25321.95773650  .00003024  00000+0  15212-2 0  9990",
        "tle_line2": "2 40793  73.9793 208.5839 0215061  10.0580 350.4754 14.05591490678970"
      },
      "geometry": {
        "type": "Point",
        "coordinates": [
          160.22705104586507,
          -4.546708815259147
        ]
      }
    },
    {
      "type": "Feature",
      "properties": {
        "norad_id": 40794,
        "name": "COSMOS 2251 DEB",
        "group": "cosmos-2251-debris",
        "lat": -0.8959665111169758,
        "lon": 119.85056633888497,
        "alt_km": 591.9134120290573,
        "timestamp": "2025-12-14T18:52:55.901893+00:00",
        "meta_object_name": "COSMOS 2251 DEB",
        "meta_object_id": "1993-036BVX",
        "meta_epoch": "2025-12-13T15:37:41.141568",
        "meta_mean_motion": 14.93159868,
        "meta_eccentricity": 0.00107848,
        "meta_inclination": 73.9763,
        "meta_ra_of_asc_node": 122.399,
        "meta_arg_of_pericenter": 261.0962,
        "meta_mean_anomaly": 116.104,
        "meta_ephemeris_type": 0,
        "meta_classification_type": "U",
        "meta_norad_cat_id": 40794,
        "meta_element_set_no": 999,
        "meta_rev_at_epoch": 61938,
        "meta_bstar": 0.0047306735,
        "meta_mean_motion_dot": 0.00049759,
        "meta_mean_motion_ddot": 0,
        "tle_line1": "1 40794U 93036BVX 25347.65117062  .00049759  00000+0  47307-2 0  9990",
        "tle_line2": "2 40794  73.9763 122.3990 0010784 261.0962 116.1040 14.93159868619387"
      },
      "geometry": {
        "type": "Point",
        "coordinates": [
          119.85056633888497,
          -0.8959665111169758
        ]
      }
    },
    {
      "type": "Feature",
      "properties": {
        "norad_id": 40796,
        "name": "COSMOS 2251 DEB",
        "group": "cosmos-2251-debris",
        "lat": -42.639697736872456,
        "lon": 122.8327299660231,
        "alt_km": 600.4060467025975,
        "timestamp": "2025-12-14T18:52:55.901903+00:00",
        "meta_object_name": "COSMOS 2251 DEB",
        "meta_object_id": "1993-036BVZ",
        "meta_epoch": "2025-12-12T16:55:09.916896",
        "meta_mean_motion": 14.81698665,
        "meta_eccentricity": 0.00560879,
        "meta_inclination": 74.0118,
        "meta_ra_of_asc_node": 142.2573,
        "meta_arg_of_pericenter": 278.9039,
        "meta_mean_anomaly": 95.9751,
        "meta_ephemeris_type": 0,
        "meta_classification_type": "U",
        "meta_norad_cat_id": 40796,
        "meta_element_set_no": 999,
        "meta_rev_at_epoch": 76158,
        "meta_bstar": 0.0013346453,
        "meta_mean_motion_dot": 0.00010785,
        "meta_mean_motion_ddot": 0,
        "tle_line1": "1 40796U 93036BVZ 25346.70497589  .00010785  00000+0  13346-2 0  9995",
        "tle_line2": "2 40796  74.0118 142.2573 0056087 278.9039  95.9751 14.81698665761584"
      },
      "geometry": {
        "type": "Point",
        "coordinates": [
          122.8327299660231,
          -42.639697736872456
        ]
      }
    }
  ]
}